[{"OBJECT_NAME":"STARLINK-31833","OBJECT_ID":"2024-090D","EPOCH":"2026-03-09T07:59:23.607168","MEAN_MOTION":15.27570677,"ECCENTRICITY":9.651e-5,"INCLINATION":42.9981,"RA_OF_ASC_NODE":185.6756,"ARG_OF_PERICENTER":272.3571,"MEAN_ANOMALY":87.717,"EPHEMERIS_TYPE":0,"CLASSIFICATION_TYPE":"U","NORAD_CAT_ID":59733,"ELEMENT_SET_NO":999,"REV_AT_EPOCH":10338,"BSTAR":0.00028786771,"MEAN_MOTION_DOT":7.666e-5,"MEAN_MOTION_DDOT":0},{"OBJECT_NAME":"BANDWAGON-2 OBJECT D","OBJECT_ID":"2024-247D","EPOCH":"2026-03-09T12:32:33.670752","MEAN_MOTION":15.29076102,"ECCENTRICITY":0.00034883,"INCLINATION":44.9954,"RA_OF_ASC_NODE":115.671,"ARG_OF_PERICENTER":351.1453,"MEAN_ANOMALY":8.9368,"EPHEMERIS_TYPE":0,"CLASSIFICATION_TYPE":"U","NORAD_CAT_ID":62380,"ELEMENT_SET_NO":999,"REV_AT_EPOCH":6773,"BSTAR":0.00040119131,"MEAN_MOTION_DOT":0.00011259,"MEAN_MOTION_DDOT":0}]
